#aV2006  8 14  0  0   .00000000      96 DD+AD WGS84 FIT  NGA
## 1388  86400.00000000   900.00000000 53961  .0000000000000
+   29     1  2  3  4  5  6  7  8  9 10 11 13 14 15 16 17 18
+         19 20 21 22 23 24 25 26 27 28 29 30  0  0  0  0  0
+          0  0  0  0  0  0  0  0  0  0  0  0  0  0  0  0  0
+          0  0  0  0  0  0  0  0  0  0  0  0  0  0  0  0  0
+          0  0  0  0  0  0  0  0  0  0  0  0  0  0  0  0  0
++         0  0  0  0  0  0  0  0  0  0  0  0  0  0  0  0  0
++         0  0  0  0  0  0  0  0  0  0  0  0  0  0  0  0  0
++         0  0  0  0  0  0  0  0  0  0  0  0  0  0  0  0  0
++         0  0  0  0  0  0  0  0  0  0  0  0  0  0  0  0  0
++         0  0  0  0  0  0  0  0  0  0  0  0  0  0  0  0  0
%c cc cc ccc ccc cccc cccc cccc cccc ccccc ccccc ccccc ccccc
%c cc cc ccc ccc cccc cccc cccc cccc ccccc ccccc ccccc ccccc
%f  0.0000000  0.000000000  0.00000000000  0.000000000000000
%f  0.0000000  0.000000000  0.00000000000  0.000000000000000
%i    0    0    0    0      0      0      0      0         0
%i    0    0    0    0      0      0      0      0         0
/*      NGA, ST. LOUIS,MO.                                  
/*   EPHEMERIS COMPUTED FROM  3 DAYS OF DATA                
/* CCCCCCCCCCCCCCCCCCCCCCCCCCCCCCCCCCCCCCCCCCCCCCCCCCCCCCCCC
/* CCCCCCCCCCCCCCCCCCCCCCCCCCCCCCCCCCCCCCCCCCCCCCCCCCCCCCCCC
*  2006  8 14  0 30   .00000000                                                 
P  1  19823.669831  13078.598412 -11760.098138     70.774823                    
V  1   7935.345437  13038.931050  27366.849587       .020682                    
P  2 -15447.854978  -2890.334949 -21641.823191     23.962915                    
V  2   8824.908212 -25482.389862  -3153.096770       .040688                    
P  3  21707.225258   7063.447512  13661.312897    169.751595                    
V  3  10510.402096  14398.284382 -23527.077407      -.212955                    
P  4  -9248.481799 -15199.041248 -19649.962112    293.003118                    
V  4  10388.299062 -22808.400487  13123.418207       .066381                    
P  5 -20935.953514  12980.178385  -9919.043672    295.163867                    
V  5 -12798.750378     35.887181  27813.864453       .225717                    
P  6   1107.376311  20147.765313 -17043.370143    598.626434                    
V  6 -16468.074978 -14960.161699 -18607.786159       .015599                    
P  7  18700.622596  18768.838438    979.914536    536.074340                    
V  7  -2116.131177   3166.486658 -31211.889982      -.025951                    
P  8  -2129.814206 -21499.000918  15017.751272    -75.861582                    
V  8   9359.641815 -17192.576491 -23470.766143      -.013897                    
P  9 -14871.905319  17469.332290  12581.661034     31.871727                    
V  9   2729.634728 -16978.795515  25916.329373       .015583                    
P 10 -26213.737189    330.429798  -5288.537694     88.055563                    
V 10   6139.886278  -3043.110170 -30893.612331       .004639                    
P 11  13311.440073 -19752.752798  11417.288259    344.780631                    
V 11   1206.543450  15408.205490  25355.886941       .019872                    
P 13  -1613.868304 -20212.048720 -17275.798305     85.335087                    
V 13  14294.811391  16314.797490 -20490.938797       .031849                    
P 14  15318.244815  21589.917856   2638.035494     -7.674478                    
V 14  -3543.349531  -1310.068680  32043.421692       .008635                    
P 15   2498.763939  21086.435361  15542.770412    662.836655                    
V 15 -10503.436962  17393.933653 -22129.876343       .073011                    
P 16  24797.078694   2474.916614  -9277.848270     64.404864                    
V 16 -11309.692463   4306.866548 -28707.097627       .030698                    
P 17 -15056.939296 -21695.955008   3315.931038     98.550749                    
V 17   4787.269029   1481.437442  31299.334567      -.009862                    
P 18  -2688.037743  15566.274489  21425.002725   -246.182603                    
V 18 -26857.216046   2840.755759  -5779.689390      -.010960                    
P 19  16525.521387  -2233.417980  20795.164102      7.502907                    
V 19  14859.689699  21537.053244  -9482.509250       .028371                    
P 20  17981.340392 -13504.626709 -14205.045709    -23.281827                    
V 20  18009.123086  -1065.932793  23985.894497       .003300                    
P 21  -3377.527047  24661.958320   8516.118085     47.237133                    
V 21  -7408.589351   8747.291082 -29073.517689       .020280                    
P 22  12120.046465  12801.305722  20029.922068    125.355463                    
V 22 -24779.386147   4178.368915  12397.629040       .032402                    
P 23   8931.007316 -12559.424055 -21709.722451    137.792787                    
V 23  17909.831930  20653.981961  -4778.134465      -.000864                    
P 24  -2945.398072 -21006.909550 -15579.726760     28.279424                    
V 24  10019.590234 -17821.111772  22082.081342       .029012                    
P 25  13011.408061   8871.475752 -20972.265388    288.282362                    
V 25  -7727.245574  26509.193946   6441.836389       .153470                    
P 26 -17147.533521   -511.294044  20041.792483   -215.051326                    
V 26 -15731.471125 -20840.448580 -13164.172484      -.139222                    
P 27   2685.495314 -25529.638812   6735.442326     62.772671                    
V 27   5007.112738  -6687.835717 -30375.919675       .018274                    
P 28  -8369.593078 -13845.874708  21413.105141     21.007704                    
V 28  26069.779696  -4467.227522   7061.113755      -.008464                    
P 29 -18694.542791  -2603.753559  19037.546766    633.581386                    
V 29 -14600.443678 -18459.828584 -16784.081529       .008805                    
P 30  -8824.143378  16175.576393 -19379.425436      6.776622                    
V 30 -23867.275745   3538.383250  14149.605507       .012054                    
EOF
